[Satellite]
VERSION=1.1
NAME=AMAZONAS 4A
NICKNAME=AMAZONAS 4A
TLE1=1 39616U 14011A   17185.38449449 -.00000288  00000-0  00000-0 0  9998
TLE2=2 39616   0.0553  67.1266 0004947  16.0783 276.8432  1.00273260 11912
